{"fetched_at":"2026-07-18T06:27:44.179Z","source":"https://celestrak.org/NORAD/elements/gp.php?GROUP=kuiper&FORMAT=JSON","constellation":"kuiper","records":[{"OBJECT_NAME":"KUIPER-00589","OBJECT_ID":"2026-151E","EPOCH":"2026-07-17T11:04:26.611968","CLASSIFICATION_TYPE":"U","MEAN_MOTION":15.37378719,"ECCENTRICITY":0.0005366,"INCLINATION":51.8764,"RA_OF_ASC_NODE":169.4246,"ARG_OF_PERICENTER":150.274,"MEAN_ANOMALY":209.8552,"EPHEMERIS_TYPE":0,"NORAD_CAT_ID":69767,"ELEMENT_SET_NO":999,"REV_AT_EPOCH":236,"BSTAR":0.00033874,"MEAN_MOTION_DOT":0.00012237,"MEAN_MOTION_DDOT":0},{"OBJECT_NAME":"KUIPER-00598","OBJECT_ID":"2026-151F","EPOCH":"2026-07-17T22:00:01.999584","CLASSIFICATION_TYPE":"U","MEAN_MOTION":15.34413763,"ECCENTRICITY":0.00088038,"INCLINATION":51.864,"RA_OF_ASC_NODE":167.439,"ARG_OF_PERICENTER":173.1576,"MEAN_ANOMALY":78.0541,"EPHEMERIS_TYPE":0,"NORAD_CAT_ID":69768,"ELEMENT_SET_NO":999,"REV_AT_EPOCH":297,"BSTAR":0.00097802161,"MEAN_MOTION_DOT":0.00032892,"MEAN_MOTION_DDOT":0},{"OBJECT_NAME":"KUIPER-00604","OBJECT_ID":"2026-151G","EPOCH":"2026-07-17T21:47:28.658112","CLASSIFICATION_TYPE":"U","MEAN_MOTION":15.38282933,"ECCENTRICITY":0.00027413,"INCLINATION":51.8803,"RA_OF_ASC_NODE":167.1691,"ARG_OF_PERICENTER":111.4868,"MEAN_ANOMALY":248.6412,"EPHEMERIS_TYPE":0,"NORAD_CAT_ID":69769,"ELEMENT_SET_NO":999,"REV_AT_EPOCH":243,"BSTAR":0.00038287839,"MEAN_MOTION_DOT":0.00014306,"MEAN_MOTION_DDOT":0},{"OBJECT_NAME":"KUIPER-00609","OBJECT_ID":"2026-151H","EPOCH":"2026-07-17T15:27:18.807552","CLASSIFICATION_TYPE":"U","MEAN_MOTION":15.38674387,"ECCENTRICITY":0.00014189,"INCLINATION":51.8808,"RA_OF_ASC_NODE":168.3993,"ARG_OF_PERICENTER":55.6122,"MEAN_ANOMALY":304.4999,"EPHEMERIS_TYPE":0,"NORAD_CAT_ID":69770,"ELEMENT_SET_NO":999,"REV_AT_EPOCH":239,"BSTAR":0.00038144281,"MEAN_MOTION_DOT":0.00014438,"MEAN_MOTION_DDOT":0},{"OBJECT_NAME":"KUIPER-00611","OBJECT_ID":"2026-151J","EPOCH":"2026-07-17T21:44:21.946848","CLASSIFICATION_TYPE":"U","MEAN_MOTION":15.38498678,"ECCENTRICITY":0.00017498,"INCLINATION":51.8804,"RA_OF_ASC_NODE":167.1516,"ARG_OF_PERICENTER":100.2434,"MEAN_ANOMALY":259.8751,"EPHEMERIS_TYPE":0,"NORAD_CAT_ID":69771,"ELEMENT_SET_NO":999,"REV_AT_EPOCH":243,"BSTAR":0.00038890471,"MEAN_MOTION_DOT":0.00014642,"MEAN_MOTION_DDOT":0},{"OBJECT_NAME":"KUIPER-00612","OBJECT_ID":"2026-151K","EPOCH":"2026-07-17T21:51:49.177440","CLASSIFICATION_TYPE":"U","MEAN_MOTION":15.37985007,"ECCENTRICITY":0.00037856,"INCLINATION":51.8795,"RA_OF_ASC_NODE":167.1902,"ARG_OF_PERICENTER":122.3507,"MEAN_ANOMALY":237.7847,"EPHEMERIS_TYPE":0,"NORAD_CAT_ID":69772,"ELEMENT_SET_NO":999,"REV_AT_EPOCH":243,"BSTAR":0.00038369877,"MEAN_MOTION_DOT":0.00014197,"MEAN_MOTION_DDOT":0},{"OBJECT_NAME":"KUIPER-00614","OBJECT_ID":"2026-151L","EPOCH":"2026-07-17T21:48:44.488800","CLASSIFICATION_TYPE":"U","MEAN_MOTION":15.38191068,"ECCENTRICITY":0.00027058,"INCLINATION":51.8806,"RA_OF_ASC_NODE":167.1732,"ARG_OF_PERICENTER":127.0358,"MEAN_ANOMALY":233.0877,"EPHEMERIS_TYPE":0,"NORAD_CAT_ID":69773,"ELEMENT_SET_NO":999,"REV_AT_EPOCH":243,"BSTAR":0.00036068969,"MEAN_MOTION_DOT":0.00013411,"MEAN_MOTION_DDOT":0},{"OBJECT_NAME":"KUIPER-00615","OBJECT_ID":"2026-151M","EPOCH":"2026-07-17T22:02:15.358848","CLASSIFICATION_TYPE":"U","MEAN_MOTION":15.37267291,"ECCENTRICITY":0.00059154,"INCLINATION":51.8777,"RA_OF_ASC_NODE":167.238,"ARG_OF_PERICENTER":153.7507,"MEAN_ANOMALY":206.3781,"EPHEMERIS_TYPE":0,"NORAD_CAT_ID":69774,"ELEMENT_SET_NO":999,"REV_AT_EPOCH":243,"BSTAR":0.00035486192,"MEAN_MOTION_DOT":0.00012794,"MEAN_MOTION_DDOT":0},{"OBJECT_NAME":"KUIPER-00616","OBJECT_ID":"2026-151N","EPOCH":"2026-07-17T21:46:11.038944","CLASSIFICATION_TYPE":"U","MEAN_MOTION":15.38408173,"ECCENTRICITY":0.00031201,"INCLINATION":51.8787,"RA_OF_ASC_NODE":167.1652,"ARG_OF_PERICENTER":128.2453,"MEAN_ANOMALY":231.8815,"EPHEMERIS_TYPE":0,"NORAD_CAT_ID":69775,"ELEMENT_SET_NO":999,"REV_AT_EPOCH":243,"BSTAR":0.000033967829,"MEAN_MOTION_DOT":0.00000911,"MEAN_MOTION_DDOT":0},{"OBJECT_NAME":"KUIPER-00617","OBJECT_ID":"2026-151P","EPOCH":"2026-07-17T21:53:47.039136","CLASSIFICATION_TYPE":"U","MEAN_MOTION":15.3782727,"ECCENTRICITY":0.00038852,"INCLINATION":51.8798,"RA_OF_ASC_NODE":167.1986,"ARG_OF_PERICENTER":140.6407,"MEAN_ANOMALY":219.4863,"EPHEMERIS_TYPE":0,"NORAD_CAT_ID":69776,"ELEMENT_SET_NO":999,"REV_AT_EPOCH":243,"BSTAR":0.00040030888,"MEAN_MOTION_DOT":0.00014753,"MEAN_MOTION_DDOT":0},{"OBJECT_NAME":"KUIPER-00619","OBJECT_ID":"2026-151Q","EPOCH":"2026-07-17T10:48:07.293024","CLASSIFICATION_TYPE":"U","MEAN_MOTION":15.38577098,"ECCENTRICITY":0.0001932,"INCLINATION":51.8811,"RA_OF_ASC_NODE":169.3464,"ARG_OF_PERICENTER":65.4654,"MEAN_ANOMALY":294.6534,"EPHEMERIS_TYPE":0,"NORAD_CAT_ID":69777,"ELEMENT_SET_NO":999,"REV_AT_EPOCH":236,"BSTAR":0.00033433,"MEAN_MOTION_DOT":0.00012561,"MEAN_MOTION_DDOT":0},{"OBJECT_NAME":"KUIPER-00621","OBJECT_ID":"2026-151R","EPOCH":"2026-07-17T21:46:09.329088","CLASSIFICATION_TYPE":"U","MEAN_MOTION":15.38358416,"ECCENTRICITY":0.00031394,"INCLINATION":51.8792,"RA_OF_ASC_NODE":167.1652,"ARG_OF_PERICENTER":109.4189,"MEAN_ANOMALY":250.7138,"EPHEMERIS_TYPE":0,"NORAD_CAT_ID":69778,"ELEMENT_SET_NO":999,"REV_AT_EPOCH":243,"BSTAR":0.0003402018,"MEAN_MOTION_DOT":0.00012697,"MEAN_MOTION_DDOT":0},{"OBJECT_NAME":"KUIPER-00622","OBJECT_ID":"2026-151S","EPOCH":"2026-07-17T12:43:37.825824","CLASSIFICATION_TYPE":"U","MEAN_MOTION":15.36960715,"ECCENTRICITY":0.0006772,"INCLINATION":51.8738,"RA_OF_ASC_NODE":169.1357,"ARG_OF_PERICENTER":155.1663,"MEAN_ANOMALY":204.9651,"EPHEMERIS_TYPE":0,"NORAD_CAT_ID":69779,"ELEMENT_SET_NO":999,"REV_AT_EPOCH":237,"BSTAR":-0.000059527,"MEAN_MOTION_DOT":-0.00002579,"MEAN_MOTION_DDOT":0},{"OBJECT_NAME":"KUIPER-00623","OBJECT_ID":"2026-151T","EPOCH":"2026-07-17T06:22:24.548160","CLASSIFICATION_TYPE":"U","MEAN_MOTION":15.37672053,"ECCENTRICITY":0.0006129,"INCLINATION":51.8777,"RA_OF_ASC_NODE":170.365,"ARG_OF_PERICENTER":146.6,"MEAN_ANOMALY":213.5375,"EPHEMERIS_TYPE":0,"NORAD_CAT_ID":69780,"ELEMENT_SET_NO":999,"REV_AT_EPOCH":233,"BSTAR":0.003498,"MEAN_MOTION_DOT":0.00133416,"MEAN_MOTION_DDOT":0},{"OBJECT_NAME":"KUIPER-00626","OBJECT_ID":"2026-151U","EPOCH":"2026-07-17T22:23:06.152640","CLASSIFICATION_TYPE":"U","MEAN_MOTION":15.35156377,"ECCENTRICITY":0.00096825,"INCLINATION":51.8714,"RA_OF_ASC_NODE":167.3279,"ARG_OF_PERICENTER":170.7412,"MEAN_ANOMALY":189.3754,"EPHEMERIS_TYPE":0,"NORAD_CAT_ID":69781,"ELEMENT_SET_NO":999,"REV_AT_EPOCH":243,"BSTAR":-0.00072897943,"MEAN_MOTION_DOT":-0.00025597,"MEAN_MOTION_DDOT":0},{"OBJECT_NAME":"KUIPER-00627","OBJECT_ID":"2026-151V","EPOCH":"2026-07-17T22:26:00.047328","CLASSIFICATION_TYPE":"U","MEAN_MOTION":15.34851723,"ECCENTRICITY":0.00109441,"INCLINATION":51.8697,"RA_OF_ASC_NODE":167.3391,"ARG_OF_PERICENTER":175.9224,"MEAN_ANOMALY":184.1852,"EPHEMERIS_TYPE":0,"NORAD_CAT_ID":69782,"ELEMENT_SET_NO":999,"REV_AT_EPOCH":243,"BSTAR":-0.0014428845,"MEAN_MOTION_DOT":-0.00049669,"MEAN_MOTION_DDOT":0}]}
