KUIPER-00589            
1 69767U 26151E   26198.46141912  .00012237  00000+0  33874-3 0  9996
2 69767  51.8764 169.4246 0005366 150.2740 209.8552 15.37378719  2362
KUIPER-00598            
1 69768U 26151F   26198.91668981  .00032892  00000+0  97802-3 0  9997
2 69768  51.8640 167.4390 0008803 173.1576  78.0541 15.34413763  2971
KUIPER-00604            
1 69769U 26151G   26198.90797058  .00014306  00000+0  38288-3 0  9998
2 69769  51.8803 167.1691 0002741 111.4868 248.6412 15.38282933  2438
KUIPER-00609            
1 69770U 26151H   26198.64396768  .00014438  00000+0  38144-3 0  9991
2 69770  51.8808 168.3993 0001418  55.6122 304.4999 15.38674387  2399
KUIPER-00611            
1 69771U 26151J   26198.90580957  .00014642  00000+0  38890-3 0  9991
2 69771  51.8804 167.1516 0001749 100.2434 259.8751 15.38498678  2435
KUIPER-00612            
1 69772U 26151K   26198.91098585  .00014197  00000+0  38370-3 0  9992
2 69772  51.8795 167.1902 0003785 122.3507 237.7847 15.37985007  2439
KUIPER-00614            
1 69773U 26151L   26198.90884825  .00013411  00000+0  36069-3 0  9993
2 69773  51.8806 167.1732 0002705 127.0358 233.0877 15.38191068  2430
KUIPER-00615            
1 69774U 26151M   26198.91823332  .00012794  00000+0  35486-3 0  9996
2 69774  51.8777 167.2380 0005915 153.7507 206.3781 15.37267291  2434
KUIPER-00616            
1 69775U 26151N   26198.90707221  .00000911  00000+0  33968-4 0  9996
2 69775  51.8787 167.1652 0003120 128.2453 231.8815 15.38408173  2438
KUIPER-00617            
1 69776U 26151P   26198.91234999  .00014753  00000+0  40031-3 0  9992
2 69776  51.8798 167.1986 0003885 140.6407 219.4863 15.37827270  2433
KUIPER-00619            
1 69777U 26151Q   26198.45008441  .00012561  00000+0  33433-3 0  9996
2 69777  51.8811 169.3464 0001932  65.4654 294.6534 15.38577098  2367
KUIPER-00621            
1 69778U 26151R   26198.90705242  .00012697  00000+0  34020-3 0  9993
2 69778  51.8792 167.1652 0003139 109.4189 250.7138 15.38358416  2436
KUIPER-00622            
1 69779U 26151S   26198.53029891 -.00002579  00000+0 -59527-4 0  9992
2 69779  51.8738 169.1357 0006772 155.1663 204.9651 15.36960715  2375
KUIPER-00623            
1 69780U 26151T   26198.26556190  .00133416  00000+0  34980-2 0  9998
2 69780  51.8777 170.3650 0006129 146.6000 213.5375 15.37672053  2337
KUIPER-00626            
1 69781U 26151U   26198.93271010 -.00025597  00000+0 -72898-3 0  9991
2 69781  51.8714 167.3279 0009682 170.7412 189.3754 15.35156377  2430
KUIPER-00627            
1 69782U 26151V   26198.93472277 -.00049669  00000+0 -14429-2 0  9991
2 69782  51.8697 167.3391 0010944 175.9224 184.1852 15.34851723  2435
